{
    "links": {
        "self": "http://www.neowsapp.com/rest/v1/neo/3601615?api_key=iIulBulltgU6a56xZRHN4H3l9WmuAYTsLGpBGhQ2"
    },
    "id": "3601615",
    "neo_reference_id": "3601615",
    "name": "(2012 FW23)",
    "designation": "2012 FW23",
    "nasa_jpl_url": "http://ssd.jpl.nasa.gov/sbdb.cgi?sstr=3601615",
    "absolute_magnitude_h": 24.5,
    "estimated_diameter": {
        "kilometers": {
            "estimated_diameter_min": 0.0334622374,
            "estimated_diameter_max": 0.0748238376
        },
        "meters": {
            "estimated_diameter_min": 33.4622374455,
            "estimated_diameter_max": 74.8238376074
        },
        "miles": {
            "estimated_diameter_min": 0.0207924639,
            "estimated_diameter_max": 0.0464933628
        },
        "feet": {
            "estimated_diameter_min": 109.7842471007,
            "estimated_diameter_max": 245.4850393757
        }
    },
    "is_potentially_hazardous_asteroid": false,
    "close_approach_data": [
        {
            "close_approach_date": "2009-03-25",
            "close_approach_date_full": "2009-Mar-25 22:56",
            "epoch_date_close_approach": 1238021760000,
            "relative_velocity": {
                "kilometers_per_second": "5.9037098731",
                "kilometers_per_hour": "21253.3555430177",
                "miles_per_hour": "13206.0086150489"
            },
            "miss_distance": {
                "astronomical": "0.1660654156",
                "lunar": "64.5994466684",
                "kilometers": "24843032.454424772",
                "miles": "15436744.5558229736"
            },
            "orbiting_body": "Earth"
        },
        {
            "close_approach_date": "2012-04-02",
            "close_approach_date_full": "2012-Apr-02 21:19",
            "epoch_date_close_approach": 1333401540000,
            "relative_velocity": {
                "kilometers_per_second": "6.0051934452",
                "kilometers_per_hour": "21618.6964026894",
                "miles_per_hour": "13433.0172175489"
            },
            "miss_distance": {
                "astronomical": "0.1272927774",
                "lunar": "49.5168904086",
                "kilometers": "19042728.365424138",
                "miles": "11832602.7211955844"
            },
            "orbiting_body": "Earth"
        },
        {
            "close_approach_date": "2015-04-10",
            "close_approach_date_full": "2015-Apr-10 07:00",
            "epoch_date_close_approach": 1428649200000,
            "relative_velocity": {
                "kilometers_per_second": "6.543952244",
                "kilometers_per_hour": "23558.2280784546",
                "miles_per_hour": "14638.1667746375"
            },
            "miss_distance": {
                "astronomical": "0.1590916023",
                "lunar": "61.8866332947",
                "kilometers": "23799764.838967101",
                "miles": "14788488.1196279538"
            },
            "orbiting_body": "Earth"
        },
        {
            "close_approach_date": "2018-04-17",
            "close_approach_date_full": "2018-Apr-17 13:15",
            "epoch_date_close_approach": 1523970900000,
            "relative_velocity": {
                "kilometers_per_second": "7.4074154335",
                "kilometers_per_hour": "26666.6955605801",
                "miles_per_hour": "16569.6475831838"
            },
            "miss_distance": {
                "astronomical": "0.2388131863",
                "lunar": "92.8983294707",
                "kilometers": "35725943.998393181",
                "miles": "22199072.2159446578"
            },
            "orbiting_body": "Earth"
        }
    ],
    "orbital_data": {
        "orbit_id": "10",
        "orbit_determination_date": "2017-04-06 08:50:22",
        "first_observation_date": "2012-03-23",
        "last_observation_date": "2012-04-18",
        "data_arc_in_days": 26,
        "observations_used": 35,
        "orbit_uncertainty": "7",
        "minimum_orbit_intersection": ".127201",
        "jupiter_tisserand_invariant": "4.960",
        "epoch_osculation": "2459000.5",
        "eccentricity": ".1425615680192076",
        "semi_major_axis": "1.304780302903773",
        "inclination": "11.35113219752927",
        "ascending_node_longitude": "185.2376647628653",
        "orbital_period": "544.382950077419",
        "perihelion_distance": "1.118768777001234",
        "perihelion_argument": "23.52237081074272",
        "aphelion_distance": "1.490791828806311",
        "perihelion_time": "2458760.855497706625",
        "mean_anomaly": "158.4767135218799",
        "mean_motion": ".6612991827697816",
        "equinox": "J2000",
        "orbit_class": {
            "orbit_class_type": "AMO",
            "orbit_class_description": "Near-Earth asteroid orbits similar to that of 1221 Amor",
            "orbit_class_range": "1.017 AU < q (perihelion) < 1.3 AU"
        }
    },
    "is_sentry_object": false
}